[{"OBJECT_ID":"2002-019A","OBJECT_NAME":"NSS 7","NORAD_CAT_ID":"27414","OBJECT_TYPE":"PAYLOAD","PERIOD":"1436.081","INCLINATION":"1.2784","APOGEE":"35797.676","PERIGEE":"35774.924","ECCENTRICITY":"0.0002698","MEAN_MOTION":"1.00272844","TLE_LINE1":"1 27414U 02019A   16237.36734859 -.00000179  00000-0  00000+0 0  9991","TLE_LINE2":"2 27414   1.2784  84.6927 0002698  66.5346 294.0832  1.00272844 52624","LAUNCH_DATE":"2002-04-16","LAUNCH_SITE":"FRENCH GUIANA","OWNER":"SOCIÉTÉ EUROPÉENNE DES SATELLITES","ORBIT_TYPE":"Geosynchronous","OPERATIONAL_STATUS":"Operational","satInfo":{"lng":-94.62041242652205,"lat":-1.983663394366555,"elevation":-10.511275326651544,"azimuth":49.620412426522044,"range":42835.0269519027,"height":35763.30471694691,"velocity":3.07523801721001},"x":-267,"y":23,"dx":-0.24772283306455836,"dy":-3.0652442415690504},{"OBJECT_ID":"2002-027A","OBJECT_NAME":"INTELSAT 905","NORAD_CAT_ID":"27438","OBJECT_TYPE":"PAYLOAD","PERIOD":"1436.056","INCLINATION":"0.0229","APOGEE":"35797.830","PERIGEE":"35773.780","ECCENTRICITY":"0.0002852","MEAN_MOTION":"1.00274608","TLE_LINE1":"1 27438U 02027A   16238.13496269 -.00000210  00000-0  00000+0 0  9998","TLE_LINE2":"2 27438   0.0229 237.7028 0002852 266.6281 213.5733  1.00274608 52038","LAUNCH_DATE":"2002-06-05","LAUNCH_SITE":"FRENCH GUIANA","OWNER":"INTERNATIONAL TELECOMMUNICATIONS SATELLITE ORGANIZATION (INTELSAT)","ORBIT_TYPE":"Geosynchronous","OPERATIONAL_STATUS":"Operational","satInfo":{"lng":-71.08952069952537,"lat":-0.5455032679433257,"elevation":-9.110978621559038,"azimuth":26.08952069952536,"range":42677.911053022464,"height":35763.23551015337,"velocity":3.075423633306152},"x":-253,"y":-91,"dx":0.996715429812196,"dy":-2.909431022772718},{"OBJECT_ID":"2002-030B","OBJECT_NAME":"BLOCK DM-SL R/B","NORAD_CAT_ID":"27446","OBJECT_TYPE":"ROCKET BODY","PERIOD":"738.851","INCLINATION":"0.6485","APOGEE":"40997.238","PERIGEE":"391.879","ECCENTRICITY":"0.749932","MEAN_MOTION":"1.94897177","TLE_LINE1":"1 27446U 02030B   16238.83949537 +.00000377 +00000-0 +11524-2 0  9998","TLE_LINE2":"2 27446 000.6485 270.3695 7499320 273.9589 160.2195 01.94897177100678","LAUNCH_DATE":"2002-06-15","LAUNCH_SITE":"SEA LAUNCH","OWNER":"SEA LAUNCH DEMO","ORBIT_TYPE":"Highly Elliptical Orbit","OPERATIONAL_STATUS":"N/A, derelict rocket body","satInfo":{"lng":-86.88599329163101,"lat":0.09653735178469915,"elevation":-8.537027567204014,"azimuth":41.88599329163099,"range":42348.89461256654,"height":35501.59694413686,"velocity":2.065748314491073},"x":-265,"y":-15,"dx":0.11221747384797955,"dy":-2.062698072279578},{"OBJECT_ID":"2002-035A","OBJECT_NAME":"EUTE 5 WEST A (STELLAT5)","NORAD_CAT_ID":"27460","OBJECT_TYPE":"PAYLOAD","PERIOD":"1436.112","INCLINATION":"0.0512","APOGEE":"35806.850","PERIGEE":"35766.945","ECCENTRICITY":"0.0004732","MEAN_MOTION":"1.00270711","TLE_LINE1":"1 27460U 02035A   16239.08405093 -.00000070  00000-0  00000+0 0  9996","TLE_LINE2":"2 27460   0.0512 321.6063 0004732 201.1467 197.2562  1.00270711 51835","LAUNCH_DATE":"2002-07-05","LAUNCH_SITE":"FRENCH GUIANA","OWNER":"EUROPEAN TELECOMMUNICATIONS SATELLITE ORGANIZATION (EUTELSAT)","ORBIT_TYPE":"Geosynchronous","OPERATIONAL_STATUS":"Operational","satInfo":{"lng":47.71516799614223,"lat":-1.171741057923581,"elevation":-9.714739183652952,"azimuth":267.2848320038578,"range":42779.21382346637,"height":35796.43703821741,"velocity":3.0750368024751165},"x":198,"y":-190,"dx":2.068936071689005,"dy":2.274940629519913},{"OBJECT_ID":"2002-040A","OBJECT_NAME":"EUTE 12 WEST A (AB 1)","NORAD_CAT_ID":"27508","OBJECT_TYPE":"PAYLOAD","PERIOD":"1436.125","INCLINATION":"0.0686","APOGEE":"35795.418","PERIGEE":"35778.898","ECCENTRICITY":"0.0001959","MEAN_MOTION":"1.00269782","TLE_LINE1":"1 27508U 02040A   16239.16987812 -.00000273  00000-0  00000+0 0  9993","TLE_LINE2":"2 27508   0.0686 358.3349 0001959 185.2218 176.4348  1.00269782 51330","LAUNCH_DATE":"2002-08-28","LAUNCH_SITE":"FRENCH GUIANA","OWNER":"EUROPEAN TELECOMMUNICATIONS SATELLITE ORGANIZATION (EUTELSAT)","ORBIT_TYPE":"Geosynchronous","OPERATIONAL_STATUS":"Operational","satInfo":{"lng":-41.18755577295396,"lat":0.1361087022732864,"elevation":-8.441918905413996,"azimuth":356.187555772954,"range":42621.14334234816,"height":35781.333211165766,"velocity":3.074747789248374},"x":-176,"y":-212,"dx":2.3139259044607083,"dy":-2.0248014411673694},{"OBJECT_ID":"2002-051A","OBJECT_NAME":"EUTE 25C (EUTE W5)","NORAD_CAT_ID":"27554","OBJECT_TYPE":"PAYLOAD","PERIOD":"1435.691","INCLINATION":"0.7679","APOGEE":"35819.702","PERIGEE":"35737.606","ECCENTRICITY":"0.0009737","MEAN_MOTION":"1.00300124","TLE_LINE1":"1 27554U 02051A   16239.42919880 -.00000380  00000-0  00000+0 0  9994","TLE_LINE2":"2 27554   0.7679  89.6988 0009737 207.0088 318.5199  1.00300124 50443","LAUNCH_DATE":"2002-11-20","LAUNCH_SITE":"AIR FORCE EASTERN TEST RANGE","OWNER":"EUROPEAN TELECOMMUNICATIONS SATELLITE ORGANIZATION (EUTELSAT)","ORBIT_TYPE":"Geosynchronous","OPERATIONAL_STATUS":"Nonoperational","satInfo":{"lng":122.98047836726383,"lat":0.05669948739219222,"elevation":-8.519943187549126,"azimuth":192.01952163273617,"range":42627.676792715465,"height":35779.13649699762,"velocity":3.075618589928082},"x":224,"y":153,"dx":-1.674222988361838,"dy":2.5800013751841213},{"OBJECT_ID":"2002-057A","OBJECT_NAME":"NSS 6","NORAD_CAT_ID":"27603","OBJECT_TYPE":"PAYLOAD","PERIOD":"1436.154","INCLINATION":"0.0199","APOGEE":"35796.899","PERIGEE":"35778.540","ECCENTRICITY":"0.0002177","MEAN_MOTION":"1.00267778","TLE_LINE1":"1 27603U 02057A   16238.91824346 -.00000297 +00000-0 +00000-0 0  9998","TLE_LINE2":"2 27603 000.0199 124.8491 0002177 083.8884 191.4202 01.00267778050174","LAUNCH_DATE":"2002-12-17","LAUNCH_SITE":"FRENCH GUIANA","OWNER":"SOCIÉTÉ EUROPÉENNE DES SATELLITES","ORBIT_TYPE":"Geosynchronous","OPERATIONAL_STATUS":"Operational","satInfo":{"lng":55.11949481227348,"lat":1.9441596204615774,"elevation":-6.67162078541208,"azimuth":259.88050518772644,"range":42420.4650072183,"height":35779.31275248907,"velocity":3.075214051969629},"x":219,"y":-161,"dx":1.7586127723323695,"dy":2.522741085093934},{"OBJECT_ID":"2003-013C","OBJECT_NAME":"ARIANE 5 R/B","NORAD_CAT_ID":"27716","OBJECT_TYPE":"ROCKET BODY","PERIOD":"642.759","INCLINATION":"1.672","APOGEE":"35741.946","PERIGEE":"844.443","ECCENTRICITY":"0.7072481","MEAN_MOTION":"2.24033989","TLE_LINE1":"1 27716U 03013C   16238.78943113 -.00000054  00000-0  15778-3 0  9997","TLE_LINE2":"2 27716   1.6720  39.0105 7072481  49.8617 298.5022  2.24033989109539","LAUNCH_DATE":"2003-04-09","LAUNCH_SITE":"FRENCH GUIANA","OWNER":"FRANCE","ORBIT_TYPE":"Highly Elliptical Orbit","OPERATIONAL_STATUS":"N/A, derelict rocket body","satInfo":{"lng":168.94955510119493,"lat":-3.5954765643440583,"elevation":-12.668866483288388,"azimuth":146.05044489880504,"range":40215.3373518151,"height":32935.40988130451,"velocity":2.0301596266110176},"x":47,"y":255,"dx":-1.992518049476385,"dy":0.3891271412176338},{"OBJECT_ID":"2003-013D","OBJECT_NAME":"ARIANE 5 DEB (SYLDA)","NORAD_CAT_ID":"27717","OBJECT_TYPE":"DEBRIS","PERIOD":"647.393","INCLINATION":"1.9159","APOGEE":"35975.274","PERIGEE":"847.973","ECCENTRICITY":"0.7085043","MEAN_MOTION":"2.22430485","TLE_LINE1":"1 27717U 03013D   16238.81396130 -.00000134 +00000-0 -67986-2 0  9990","TLE_LINE2":"2 27717 001.9159 050.7015 7085043 022.7912 149.2820 02.22430485108767","LAUNCH_DATE":"2003-04-09","LAUNCH_SITE":"FRENCH GUIANA","OWNER":"FRANCE","ORBIT_TYPE":"Highly Elliptical Orbit","OPERATIONAL_STATUS":"N/A, space debris","satInfo":{"lng":-166.59747504270337,"lat":-4.127302608705858,"elevation":-15.138934030414989,"azimuth":121.59747504270334,"range":33179.56158456915,"height":25733.107785241904,"velocity":2.9597172934493368},"x":-45,"y":197,"dx":-2.8791113594237334,"dy":-0.6860351573937656},{"OBJECT_ID":"2003-014A","OBJECT_NAME":"ASIASAT 4","NORAD_CAT_ID":"27718","OBJECT_TYPE":"PAYLOAD","PERIOD":"1436.150","INCLINATION":"0.0092","APOGEE":"35793.544","PERIGEE":"35781.763","ECCENTRICITY":"0.0001397","MEAN_MOTION":"1.00268014","TLE_LINE1":"1 27718U 03014A   16238.80674259 -.00000387 +00000-0 +00000-0 0  9993","TLE_LINE2":"2 27718 000.0092 162.4200 0001397 284.8762 299.6986 01.00268014049004","LAUNCH_DATE":"2003-04-12","LAUNCH_SITE":"AIR FORCE EASTERN TEST RANGE","OWNER":"ASIASAT CORP","ORBIT_TYPE":"Geosynchronous","OPERATIONAL_STATUS":"Operational","satInfo":{"lng":78.82605028859594,"lat":0.7397154789861581,"elevation":-7.845026761094183,"azimuth":236.17394971140405,"range":42587.64034658218,"height":35814.4332543306,"velocity":3.073637650045403},"x":262,"y":-55,"dx":0.5956350975281239,"dy":3.015371823568246},{"OBJECT_ID":"2003-028B","OBJECT_NAME":"OPTUS C1","NORAD_CAT_ID":"27831","OBJECT_TYPE":"PAYLOAD","PERIOD":"1436.098","INCLINATION":"0.0354","APOGEE":"35804.609","PERIGEE":"35768.634","ECCENTRICITY":"0.0004266","MEAN_MOTION":"1.00271694","TLE_LINE1":"1 27831U 03028B   16239.49261594 -.00000176  00000-0  00000+0 0  9999","TLE_LINE2":"2 27831   0.0354 220.8112 0004266 303.3875 144.3075  1.00271694 48408","LAUNCH_DATE":"2003-06-11","LAUNCH_SITE":"FRENCH GUIANA","OWNER":"AUSTRALIA","ORBIT_TYPE":"Geosynchronous","OPERATIONAL_STATUS":"Operational","satInfo":{"lng":-126.72013879392061,"lat":0.506733712040728,"elevation":-8.068753919743362,"azimuth":81.7201387939206,"range":42633.977934309645,"height":35835.4287771268,"velocity":3.0722802472355464},"x":-215,"y":169,"dx":-1.8369376346880586,"dy":-2.4626339646444313}]